[{"OBJECT_NAME":"ONEWEB-0544","OBJECT_ID":"2023-004E","EPOCH":"2026-03-09T20:02:14.945280","MEAN_MOTION":13.18686496,"ECCENTRICITY":0.00019858,"INCLINATION":87.9242,"RA_OF_ASC_NODE":355.2086,"ARG_OF_PERICENTER":83.3143,"MEAN_ANOMALY":276.8215,"EPHEMERIS_TYPE":0,"CLASSIFICATION_TYPE":"U","NORAD_CAT_ID":55144,"ELEMENT_SET_NO":999,"REV_AT_EPOCH":15660,"BSTAR":-3.6204802e-5,"MEAN_MOTION_DOT":-1.0e-8,"MEAN_MOTION_DDOT":0},{"OBJECT_NAME":"COSMOS 457","OBJECT_ID":"1971-099A","EPOCH":"2026-03-09T17:22:41.928096","MEAN_MOTION":13.16113343,"ECCENTRICITY":0.00223107,"INCLINATION":74.0365,"RA_OF_ASC_NODE":159.0991,"ARG_OF_PERICENTER":81.8482,"MEAN_ANOMALY":32.906,"EPHEMERIS_TYPE":0,"CLASSIFICATION_TYPE":"U","NORAD_CAT_ID":5614,"ELEMENT_SET_NO":999,"REV_AT_EPOCH":60847,"BSTAR":0.00099329993,"MEAN_MOTION_DOT":3.59e-6,"MEAN_MOTION_DDOT":0}]
